<?xml version="1.0" encoding="utf-8" ?>
<kml xmlns="http://www.opengis.net/kml/2.2">
<Document id="root_doc">
<Schema name="SE_11010001.0" id="SE_11010001.0">
	<SimpleField name="fid" type="string"></SimpleField>
	<SimpleField name="id" type="string"></SimpleField>
	<SimpleField name="objectid" type="string"></SimpleField>
	<SimpleField name="region" type="string"></SimpleField>
	<SimpleField name="lregion" type="string"></SimpleField>
	<SimpleField name="cercle" type="string"></SimpleField>
	<SimpleField name="lcercle" type="string"></SimpleField>
	<SimpleField name="commune" type="string"></SimpleField>
	<SimpleField name="lcommune" type="string"></SimpleField>
	<SimpleField name="type_com" type="string"></SimpleField>
	<SimpleField name="num_se" type="string"></SimpleField>
	<SimpleField name="num_dd" type="string"></SimpleField>
	<SimpleField name="pop_se" type="string"></SimpleField>
	<SimpleField name="idzc" type="string"></SimpleField>
	<SimpleField name="iddd" type="string"></SimpleField>
	<SimpleField name="idse" type="string"></SimpleField>
	<SimpleField name="resultat_c" type="string"></SimpleField>
	<SimpleField name="statut_se" type="string"></SimpleField>
	<SimpleField name="mode_vie_c" type="string"></SimpleField>
	<SimpleField name="statut_col" type="string"></SimpleField>
	<SimpleField name="emprise" type="string"></SimpleField>
	<SimpleField name="affiche_in" type="string"></SimpleField>
	<SimpleField name="zone" type="string"></SimpleField>
	<SimpleField name="source" type="string"></SimpleField>
	<SimpleField name="date_modif" type="string"></SimpleField>
	<SimpleField name="observatio" type="string"></SimpleField>
	<SimpleField name="shape_leng" type="string"></SimpleField>
	<SimpleField name="shape_area" type="string"></SimpleField>
</Schema>
<Folder><name>SE_11010001.0</name>
  <Placemark id="SE_11010001.0.1">
	<name>88921.0</name>
	<description>4770.0</description>
	<Style><LineStyle><color>ff0000ff</color></LineStyle><PolyStyle><fill>0</fill></PolyStyle></Style>
	<ExtendedData><SchemaData schemaUrl="#SE_11010001.0">
		<SimpleData name="fid">4779.0</SimpleData>
		<SimpleData name="id">01</SimpleData>
		<SimpleData name="objectid">Kayes</SimpleData>
		<SimpleData name="region">11</SimpleData>
		<SimpleData name="lregion">Kayes</SimpleData>
		<SimpleData name="cercle">1101</SimpleData>
		<SimpleData name="lcercle">Kayes commune</SimpleData>
		<SimpleData name="commune">UR</SimpleData>
		<SimpleData name="lcommune">0001</SimpleData>
		<SimpleData name="type_com">001</SimpleData>
		<SimpleData name="num_se">818.0</SimpleData>
		<SimpleData name="num_dd">1110.0</SimpleData>
		<SimpleData name="pop_se">1101001.0</SimpleData>
		<SimpleData name="idzc">11010001.0</SimpleData>
		<SimpleData name="iddd">Accessible</SimpleData>
		<SimpleData name="idse">SE Sedentaire</SimpleData>
		<SimpleData name="resultat_c">Commune Sedentaire</SimpleData>
		<SimpleData name="statut_se">CAPI</SimpleData>
		<SimpleData name="mode_vie_c">Non</SimpleData>
		<SimpleData name="statut_col">Oui</SimpleData>
		<SimpleData name="emprise">CAPI</SimpleData>
		<SimpleData name="affiche_in">Carto RGPH5 2019-2020</SimpleData>
		<SimpleData name="date_modif">4.10316e-05</SimpleData>
	</SchemaData></ExtendedData>
      <Polygon><outerBoundaryIs><LinearRing><coordinates>-11.451017034,14.4673521400001 -11.4510143869999,14.467351428 -11.451009815,14.467349702 -11.450829224,14.467281513 -11.449722166,14.466863496 -11.4491909249999,14.466662904 -11.448509854,14.466391302 -11.4481260499999,14.466238247 -11.448054267,14.46620962 -11.448028751,14.466199746 -11.447952605,14.4663924430001 -11.446019333,14.46568018 -11.4460304309999,14.4656486540001 -11.446182171,14.465217604 -11.4462222879999,14.465103205 -11.4462594669999,14.464997182 -11.446664701,14.465140638 -11.447005834,14.4643007060001 -11.447604419,14.462759668 -11.4477047999999,14.4625012390001 -11.448248764,14.4611797920001 -11.447993056,14.461091004 -11.448704387,14.4591870960001 -11.449165133,14.458124121 -11.4501631369999,14.4583468180001 -11.451186306,14.458477687 -11.451738763,14.458594427 -11.451614085,14.458969261 -11.4516025039999,14.4590040780001 -11.4515712039999,14.459098178 -11.4515522469999,14.45917552 -11.451462598,14.459541287 -11.4514544809999,14.4595744060001 -11.4514357479999,14.4596508340001 -11.4513537509999,14.4599853780001 -11.45133937,14.4600821350001 -11.4513090959999,14.46028582 -11.451288845,14.460422071 -11.451273713,14.460523879 -11.451239384,14.460754841 -11.451225286,14.460849694 -11.4512173589999,14.460903027 -11.451202934,14.461000079 -11.451193463,14.4610637980001 -11.451231929,14.461121497 -11.451357645,14.4613100720001 -11.4512843059999,14.461512489 -11.4512684159999,14.4615563450001 -11.4512833159999,14.461562975 -11.4513600679999,14.461597124 -11.4514701859999,14.461646117 -11.451478998,14.461650037 -11.452051162,14.461768867 -11.452240408,14.46180817 -11.452417855,14.461845022 -11.452574899,14.4619021300001 -11.452563708,14.462021496 -11.45255042,14.462163237 -11.452532069,14.462358986 -11.452452837,14.462708778 -11.4524932419999,14.46279028 -11.452508274,14.462820601 -11.452517792,14.4628872260001 -11.452408337,14.463201315 -11.452234517,14.463601893 -11.4520399969999,14.464050178 -11.452022411,14.464090707 -11.451856999,14.46447191 -11.451691388,14.464853573 -11.4515639689999,14.465147218 -11.451495698,14.4653045540001 -11.451470829,14.465361865 -11.453243528,14.466075704 -11.454146129,14.466415296 -11.4541475739999,14.46641584 -11.454445156,14.466527802 -11.4552522459999,14.466828596 -11.4551116279999,14.4672431390001 -11.455064755,14.467381318 -11.4548714159999,14.467951284 -11.4547371959999,14.4683526760001 -11.451017034,14.4673521400001</coordinates></LinearRing></outerBoundaryIs></Polygon>
  </Placemark>
</Folder>
</Document></kml>
