<?xml version="1.0" encoding="utf-8" ?>
<kml xmlns="http://www.opengis.net/kml/2.2">
<Document id="root_doc">
<Schema name="SE_11010019.0" id="SE_11010019.0">
	<SimpleField name="fid" type="string"></SimpleField>
	<SimpleField name="id" type="string"></SimpleField>
	<SimpleField name="objectid" type="string"></SimpleField>
	<SimpleField name="region" type="string"></SimpleField>
	<SimpleField name="lregion" type="string"></SimpleField>
	<SimpleField name="cercle" type="string"></SimpleField>
	<SimpleField name="lcercle" type="string"></SimpleField>
	<SimpleField name="commune" type="string"></SimpleField>
	<SimpleField name="lcommune" type="string"></SimpleField>
	<SimpleField name="type_com" type="string"></SimpleField>
	<SimpleField name="num_se" type="string"></SimpleField>
	<SimpleField name="num_dd" type="string"></SimpleField>
	<SimpleField name="pop_se" type="string"></SimpleField>
	<SimpleField name="idzc" type="string"></SimpleField>
	<SimpleField name="iddd" type="string"></SimpleField>
	<SimpleField name="idse" type="string"></SimpleField>
	<SimpleField name="resultat_c" type="string"></SimpleField>
	<SimpleField name="statut_se" type="string"></SimpleField>
	<SimpleField name="mode_vie_c" type="string"></SimpleField>
	<SimpleField name="statut_col" type="string"></SimpleField>
	<SimpleField name="emprise" type="string"></SimpleField>
	<SimpleField name="affiche_in" type="string"></SimpleField>
	<SimpleField name="zone" type="string"></SimpleField>
	<SimpleField name="source" type="string"></SimpleField>
	<SimpleField name="date_modif" type="string"></SimpleField>
	<SimpleField name="observatio" type="string"></SimpleField>
	<SimpleField name="shape_leng" type="string"></SimpleField>
	<SimpleField name="shape_area" type="string"></SimpleField>
</Schema>
<Folder><name>SE_11010019.0</name>
  <Placemark id="SE_11010019.0.1">
	<name>88965.0</name>
	<description>4814.0</description>
	<Style><LineStyle><color>ff0000ff</color></LineStyle><PolyStyle><fill>0</fill></PolyStyle></Style>
	<ExtendedData><SchemaData schemaUrl="#SE_11010019.0">
		<SimpleData name="fid">4823.0</SimpleData>
		<SimpleData name="id">01</SimpleData>
		<SimpleData name="objectid">Kayes</SimpleData>
		<SimpleData name="region">11</SimpleData>
		<SimpleData name="lregion">Kayes</SimpleData>
		<SimpleData name="cercle">1101</SimpleData>
		<SimpleData name="lcercle">Kayes commune</SimpleData>
		<SimpleData name="commune">UR</SimpleData>
		<SimpleData name="lcommune">0019</SimpleData>
		<SimpleData name="type_com">004</SimpleData>
		<SimpleData name="num_se">789.0</SimpleData>
		<SimpleData name="num_dd">1111.0</SimpleData>
		<SimpleData name="pop_se">1101004.0</SimpleData>
		<SimpleData name="idzc">11010019.0</SimpleData>
		<SimpleData name="iddd">Accessible</SimpleData>
		<SimpleData name="idse">SE Sedentaire</SimpleData>
		<SimpleData name="resultat_c">Commune Sedentaire</SimpleData>
		<SimpleData name="statut_se">CAPI</SimpleData>
		<SimpleData name="mode_vie_c">Non</SimpleData>
		<SimpleData name="statut_col">Oui</SimpleData>
		<SimpleData name="emprise">CAPI</SimpleData>
		<SimpleData name="affiche_in">Carto RGPH5 2019-2020</SimpleData>
		<SimpleData name="date_modif">4.2253e-06</SimpleData>
	</SchemaData></ExtendedData>
      <Polygon><outerBoundaryIs><LinearRing><coordinates>-11.431903957,14.461826267 -11.431803907,14.4617976500001 -11.4308629179999,14.461528758 -11.4306725019999,14.461477713 -11.4305900859999,14.46145562 -11.430418539,14.4614053290001 -11.430175456,14.461337811 -11.430520015,14.460366482 -11.430875315,14.4593648750001 -11.4309749609999,14.459396821 -11.4315417509999,14.4595785240001 -11.432087977,14.459759031 -11.432489452,14.459891704 -11.4328249119999,14.4600025620001 -11.432206724,14.4618486000001 -11.4319253419999,14.461759036 -11.431910017,14.461807214 -11.431903957,14.461826267</coordinates></LinearRing></outerBoundaryIs></Polygon>
  </Placemark>
</Folder>
</Document></kml>
