<?xml version="1.0" encoding="utf-8" ?>
<kml xmlns="http://www.opengis.net/kml/2.2">
<Document id="root_doc">
<Schema name="SE_11010020.0" id="SE_11010020.0">
	<SimpleField name="fid" type="string"></SimpleField>
	<SimpleField name="id" type="string"></SimpleField>
	<SimpleField name="objectid" type="string"></SimpleField>
	<SimpleField name="region" type="string"></SimpleField>
	<SimpleField name="lregion" type="string"></SimpleField>
	<SimpleField name="cercle" type="string"></SimpleField>
	<SimpleField name="lcercle" type="string"></SimpleField>
	<SimpleField name="commune" type="string"></SimpleField>
	<SimpleField name="lcommune" type="string"></SimpleField>
	<SimpleField name="type_com" type="string"></SimpleField>
	<SimpleField name="num_se" type="string"></SimpleField>
	<SimpleField name="num_dd" type="string"></SimpleField>
	<SimpleField name="pop_se" type="string"></SimpleField>
	<SimpleField name="idzc" type="string"></SimpleField>
	<SimpleField name="iddd" type="string"></SimpleField>
	<SimpleField name="idse" type="string"></SimpleField>
	<SimpleField name="resultat_c" type="string"></SimpleField>
	<SimpleField name="statut_se" type="string"></SimpleField>
	<SimpleField name="mode_vie_c" type="string"></SimpleField>
	<SimpleField name="statut_col" type="string"></SimpleField>
	<SimpleField name="emprise" type="string"></SimpleField>
	<SimpleField name="affiche_in" type="string"></SimpleField>
	<SimpleField name="zone" type="string"></SimpleField>
	<SimpleField name="source" type="string"></SimpleField>
	<SimpleField name="date_modif" type="string"></SimpleField>
	<SimpleField name="observatio" type="string"></SimpleField>
	<SimpleField name="shape_leng" type="string"></SimpleField>
	<SimpleField name="shape_area" type="string"></SimpleField>
</Schema>
<Folder><name>SE_11010020.0</name>
  <Placemark id="SE_11010020.0.1">
	<name>88884.0</name>
	<description>4733.0</description>
	<Style><LineStyle><color>ff0000ff</color></LineStyle><PolyStyle><fill>0</fill></PolyStyle></Style>
	<ExtendedData><SchemaData schemaUrl="#SE_11010020.0">
		<SimpleData name="fid">4742.0</SimpleData>
		<SimpleData name="id">01</SimpleData>
		<SimpleData name="objectid">Kayes</SimpleData>
		<SimpleData name="region">11</SimpleData>
		<SimpleData name="lregion">Kayes</SimpleData>
		<SimpleData name="cercle">1101</SimpleData>
		<SimpleData name="lcercle">Kayes commune</SimpleData>
		<SimpleData name="commune">UR</SimpleData>
		<SimpleData name="lcommune">0020</SimpleData>
		<SimpleData name="type_com">004</SimpleData>
		<SimpleData name="num_se">677.0</SimpleData>
		<SimpleData name="num_dd">1111.0</SimpleData>
		<SimpleData name="pop_se">1101004.0</SimpleData>
		<SimpleData name="idzc">11010020.0</SimpleData>
		<SimpleData name="iddd">Accessible</SimpleData>
		<SimpleData name="idse">SE Sedentaire</SimpleData>
		<SimpleData name="resultat_c">Commune Sedentaire</SimpleData>
		<SimpleData name="statut_se">CAPI</SimpleData>
		<SimpleData name="mode_vie_c">Non</SimpleData>
		<SimpleData name="statut_col">Oui</SimpleData>
		<SimpleData name="emprise">CAPI</SimpleData>
		<SimpleData name="affiche_in">Carto RGPH5 2019-2020</SimpleData>
		<SimpleData name="date_modif">1.34008e-05</SimpleData>
	</SchemaData></ExtendedData>
      <Polygon><outerBoundaryIs><LinearRing><coordinates>-11.4296735359999,14.4634638110001 -11.426791989,14.462760646 -11.42679147,14.462760519 -11.426787625,14.462759309 -11.426801226,14.4627246740001 -11.4268115149999,14.462698474 -11.426856659,14.462537191 -11.4268672319999,14.462499418 -11.4269525779999,14.46220974 -11.42713487,14.461591012 -11.4271562869999,14.461509044 -11.4272284959999,14.46123268 -11.4272900399999,14.460997133 -11.4273274179999,14.460854077 -11.4273712849999,14.460686187 -11.4273966109999,14.460589258 -11.4274068,14.4605691400001 -11.427498489,14.460265528 -11.4277078129999,14.459572387 -11.427748344,14.4594381750001 -11.428523178,14.459687359 -11.4285264759999,14.45968851 -11.4285581099999,14.459699557 -11.428719986,14.459756086 -11.429185365,14.4599185980001 -11.430520015,14.460366482 -11.430175456,14.461337811 -11.430418539,14.4614053290001 -11.4305900859999,14.46145562 -11.4306725019999,14.461477713 -11.4308629179999,14.461528758 -11.431803907,14.4617976500001 -11.431903957,14.461826267 -11.4318247589999,14.462075247 -11.431700292,14.4624665440001 -11.431499882,14.4630965910001 -11.4312599359999,14.46385093 -11.431066216,14.4638036590001 -11.4310372759999,14.4637965970001 -11.429719081,14.4634749250001 -11.4296735359999,14.4634638110001</coordinates></LinearRing></outerBoundaryIs></Polygon>
  </Placemark>
</Folder>
</Document></kml>
