<?xml version="1.0" encoding="utf-8" ?>
<kml xmlns="http://www.opengis.net/kml/2.2">
<Document id="root_doc">
<Schema name="SE_11010014.0" id="SE_11010014.0">
	<SimpleField name="fid" type="string"></SimpleField>
	<SimpleField name="id" type="string"></SimpleField>
	<SimpleField name="objectid" type="string"></SimpleField>
	<SimpleField name="region" type="string"></SimpleField>
	<SimpleField name="lregion" type="string"></SimpleField>
	<SimpleField name="cercle" type="string"></SimpleField>
	<SimpleField name="lcercle" type="string"></SimpleField>
	<SimpleField name="commune" type="string"></SimpleField>
	<SimpleField name="lcommune" type="string"></SimpleField>
	<SimpleField name="type_com" type="string"></SimpleField>
	<SimpleField name="num_se" type="string"></SimpleField>
	<SimpleField name="num_dd" type="string"></SimpleField>
	<SimpleField name="pop_se" type="string"></SimpleField>
	<SimpleField name="idzc" type="string"></SimpleField>
	<SimpleField name="iddd" type="string"></SimpleField>
	<SimpleField name="idse" type="string"></SimpleField>
	<SimpleField name="resultat_c" type="string"></SimpleField>
	<SimpleField name="statut_se" type="string"></SimpleField>
	<SimpleField name="mode_vie_c" type="string"></SimpleField>
	<SimpleField name="statut_col" type="string"></SimpleField>
	<SimpleField name="emprise" type="string"></SimpleField>
	<SimpleField name="affiche_in" type="string"></SimpleField>
	<SimpleField name="zone" type="string"></SimpleField>
	<SimpleField name="source" type="string"></SimpleField>
	<SimpleField name="date_modif" type="string"></SimpleField>
	<SimpleField name="observatio" type="string"></SimpleField>
	<SimpleField name="shape_leng" type="string"></SimpleField>
	<SimpleField name="shape_area" type="string"></SimpleField>
</Schema>
<Folder><name>SE_11010014.0</name>
  <Placemark id="SE_11010014.0.1">
	<name>88968.0</name>
	<description>4817.0</description>
	<Style><LineStyle><color>ff0000ff</color></LineStyle><PolyStyle><fill>0</fill></PolyStyle></Style>
	<ExtendedData><SchemaData schemaUrl="#SE_11010014.0">
		<SimpleData name="fid">4826.0</SimpleData>
		<SimpleData name="id">01</SimpleData>
		<SimpleData name="objectid">Kayes</SimpleData>
		<SimpleData name="region">11</SimpleData>
		<SimpleData name="lregion">Kayes</SimpleData>
		<SimpleData name="cercle">1101</SimpleData>
		<SimpleData name="lcercle">Kayes commune</SimpleData>
		<SimpleData name="commune">UR</SimpleData>
		<SimpleData name="lcommune">0014</SimpleData>
		<SimpleData name="type_com">003</SimpleData>
		<SimpleData name="num_se">709.0</SimpleData>
		<SimpleData name="num_dd">1109.0</SimpleData>
		<SimpleData name="pop_se">1101003.0</SimpleData>
		<SimpleData name="idzc">11010014.0</SimpleData>
		<SimpleData name="iddd">Accessible</SimpleData>
		<SimpleData name="idse">SE Sedentaire</SimpleData>
		<SimpleData name="resultat_c">Commune Sedentaire</SimpleData>
		<SimpleData name="statut_se">CAPI</SimpleData>
		<SimpleData name="mode_vie_c">Non</SimpleData>
		<SimpleData name="statut_col">Oui</SimpleData>
		<SimpleData name="emprise">CAPI</SimpleData>
		<SimpleData name="affiche_in">Carto RGPH5 2019-2020</SimpleData>
		<SimpleData name="date_modif">6.9335e-06</SimpleData>
	</SchemaData></ExtendedData>
      <Polygon><outerBoundaryIs><LinearRing><coordinates>-11.4303231069999,14.456612251 -11.4299357309999,14.4564741090001 -11.429805975,14.456427837 -11.429556423,14.456350795 -11.428913875,14.4561285070001 -11.428958968,14.456003235 -11.4296054,14.4543196270001 -11.4300172559999,14.454439752 -11.430462006,14.4545694710001 -11.4304882489999,14.45450924 -11.4311995809999,14.454772813 -11.4314149799999,14.454852626 -11.431115168,14.4556473660001 -11.432359773,14.456098051 -11.432886229,14.4563003050001 -11.4333053359999,14.456449666 -11.4335407479999,14.456549169 -11.4335583439999,14.456556607 -11.4333560859999,14.4571982530001 -11.433318759,14.4573166700001 -11.433297433,14.457384323 -11.433281844,14.4574337780001 -11.433275243,14.4574547190001 -11.43327498,14.4574554920001 -11.433235193,14.457572423 -11.433187335,14.4577130750001 -11.4331847409999,14.457720699 -11.4331553499999,14.457710132 -11.433152413,14.4577090780001 -11.4331507969999,14.4577085 -11.4329501089999,14.4576375520001 -11.4328790339999,14.457612387 -11.4324713839999,14.457468055 -11.432091167,14.4573334360001 -11.4321187699999,14.4572525990001 -11.431373262,14.4569867450001 -11.4309601539999,14.456839427 -11.4303231069999,14.456612251</coordinates></LinearRing></outerBoundaryIs></Polygon>
  </Placemark>
</Folder>
</Document></kml>
