<?xml version="1.0" encoding="utf-8" ?>
<kml xmlns="http://www.opengis.net/kml/2.2">
<Document id="root_doc">
<Schema name="SE_11010007.0" id="SE_11010007.0">
	<SimpleField name="fid" type="string"></SimpleField>
	<SimpleField name="id" type="string"></SimpleField>
	<SimpleField name="objectid" type="string"></SimpleField>
	<SimpleField name="region" type="string"></SimpleField>
	<SimpleField name="lregion" type="string"></SimpleField>
	<SimpleField name="cercle" type="string"></SimpleField>
	<SimpleField name="lcercle" type="string"></SimpleField>
	<SimpleField name="commune" type="string"></SimpleField>
	<SimpleField name="lcommune" type="string"></SimpleField>
	<SimpleField name="type_com" type="string"></SimpleField>
	<SimpleField name="num_se" type="string"></SimpleField>
	<SimpleField name="num_dd" type="string"></SimpleField>
	<SimpleField name="pop_se" type="string"></SimpleField>
	<SimpleField name="idzc" type="string"></SimpleField>
	<SimpleField name="iddd" type="string"></SimpleField>
	<SimpleField name="idse" type="string"></SimpleField>
	<SimpleField name="resultat_c" type="string"></SimpleField>
	<SimpleField name="statut_se" type="string"></SimpleField>
	<SimpleField name="mode_vie_c" type="string"></SimpleField>
	<SimpleField name="statut_col" type="string"></SimpleField>
	<SimpleField name="emprise" type="string"></SimpleField>
	<SimpleField name="affiche_in" type="string"></SimpleField>
	<SimpleField name="zone" type="string"></SimpleField>
	<SimpleField name="source" type="string"></SimpleField>
	<SimpleField name="date_modif" type="string"></SimpleField>
	<SimpleField name="observatio" type="string"></SimpleField>
	<SimpleField name="shape_leng" type="string"></SimpleField>
	<SimpleField name="shape_area" type="string"></SimpleField>
</Schema>
<Folder><name>SE_11010007.0</name>
  <Placemark id="SE_11010007.0.1">
	<name>88912.0</name>
	<description>4761.0</description>
	<Style><LineStyle><color>ff0000ff</color></LineStyle><PolyStyle><fill>0</fill></PolyStyle></Style>
	<ExtendedData><SchemaData schemaUrl="#SE_11010007.0">
		<SimpleData name="fid">4770.0</SimpleData>
		<SimpleData name="id">01</SimpleData>
		<SimpleData name="objectid">Kayes</SimpleData>
		<SimpleData name="region">11</SimpleData>
		<SimpleData name="lregion">Kayes</SimpleData>
		<SimpleData name="cercle">1101</SimpleData>
		<SimpleData name="lcercle">Kayes commune</SimpleData>
		<SimpleData name="commune">UR</SimpleData>
		<SimpleData name="lcommune">0007</SimpleData>
		<SimpleData name="type_com">002</SimpleData>
		<SimpleData name="num_se">762.0</SimpleData>
		<SimpleData name="num_dd">1110.0</SimpleData>
		<SimpleData name="pop_se">1101002.0</SimpleData>
		<SimpleData name="idzc">11010007.0</SimpleData>
		<SimpleData name="iddd">Accessible</SimpleData>
		<SimpleData name="idse">SE Sedentaire</SimpleData>
		<SimpleData name="resultat_c">Commune Sedentaire</SimpleData>
		<SimpleData name="statut_se">CAPI</SimpleData>
		<SimpleData name="mode_vie_c">Non</SimpleData>
		<SimpleData name="statut_col">Oui</SimpleData>
		<SimpleData name="emprise">CAPI</SimpleData>
		<SimpleData name="affiche_in">Carto RGPH5 2019-2020</SimpleData>
		<SimpleData name="date_modif">7.4463e-06</SimpleData>
	</SchemaData></ExtendedData>
      <Polygon><outerBoundaryIs><LinearRing><coordinates>-11.4401580059999,14.457896562 -11.4410401229999,14.4554142800001 -11.441225845,14.4555097200001 -11.4415375909999,14.4556699230001 -11.4422396379999,14.4559601030001 -11.442429889,14.4560387400001 -11.442547438,14.4560896780001 -11.4421702079999,14.457280231 -11.4416195439999,14.458802323 -11.44111749,14.4600883250001 -11.4410595749999,14.460236674 -11.44103998,14.4602283580001 -11.439939282,14.4598178140001 -11.4398877089999,14.4597985780001 -11.4395051549999,14.4596558910001 -11.4399051359999,14.4585780080001 -11.4401580059999,14.457896562</coordinates></LinearRing></outerBoundaryIs></Polygon>
  </Placemark>
</Folder>
</Document></kml>
