<?xml version="1.0" encoding="utf-8" ?>
<kml xmlns="http://www.opengis.net/kml/2.2">
<Document id="root_doc">
<Schema name="SE_11010012.0" id="SE_11010012.0">
	<SimpleField name="fid" type="string"></SimpleField>
	<SimpleField name="id" type="string"></SimpleField>
	<SimpleField name="objectid" type="string"></SimpleField>
	<SimpleField name="region" type="string"></SimpleField>
	<SimpleField name="lregion" type="string"></SimpleField>
	<SimpleField name="cercle" type="string"></SimpleField>
	<SimpleField name="lcercle" type="string"></SimpleField>
	<SimpleField name="commune" type="string"></SimpleField>
	<SimpleField name="lcommune" type="string"></SimpleField>
	<SimpleField name="type_com" type="string"></SimpleField>
	<SimpleField name="num_se" type="string"></SimpleField>
	<SimpleField name="num_dd" type="string"></SimpleField>
	<SimpleField name="pop_se" type="string"></SimpleField>
	<SimpleField name="idzc" type="string"></SimpleField>
	<SimpleField name="iddd" type="string"></SimpleField>
	<SimpleField name="idse" type="string"></SimpleField>
	<SimpleField name="resultat_c" type="string"></SimpleField>
	<SimpleField name="statut_se" type="string"></SimpleField>
	<SimpleField name="mode_vie_c" type="string"></SimpleField>
	<SimpleField name="statut_col" type="string"></SimpleField>
	<SimpleField name="emprise" type="string"></SimpleField>
	<SimpleField name="affiche_in" type="string"></SimpleField>
	<SimpleField name="zone" type="string"></SimpleField>
	<SimpleField name="source" type="string"></SimpleField>
	<SimpleField name="date_modif" type="string"></SimpleField>
	<SimpleField name="observatio" type="string"></SimpleField>
	<SimpleField name="shape_leng" type="string"></SimpleField>
	<SimpleField name="shape_area" type="string"></SimpleField>
</Schema>
<Folder><name>SE_11010012.0</name>
  <Placemark id="SE_11010012.0.1">
	<name>88887.0</name>
	<description>4736.0</description>
	<Style><LineStyle><color>ff0000ff</color></LineStyle><PolyStyle><fill>0</fill></PolyStyle></Style>
	<ExtendedData><SchemaData schemaUrl="#SE_11010012.0">
		<SimpleData name="fid">4745.0</SimpleData>
		<SimpleData name="id">01</SimpleData>
		<SimpleData name="objectid">Kayes</SimpleData>
		<SimpleData name="region">11</SimpleData>
		<SimpleData name="lregion">Kayes</SimpleData>
		<SimpleData name="cercle">1101</SimpleData>
		<SimpleData name="lcercle">Kayes commune</SimpleData>
		<SimpleData name="commune">UR</SimpleData>
		<SimpleData name="lcommune">0012</SimpleData>
		<SimpleData name="type_com">003</SimpleData>
		<SimpleData name="num_se">686.0</SimpleData>
		<SimpleData name="num_dd">1109.0</SimpleData>
		<SimpleData name="pop_se">1101003.0</SimpleData>
		<SimpleData name="idzc">11010012.0</SimpleData>
		<SimpleData name="iddd">Accessible</SimpleData>
		<SimpleData name="idse">SE Sedentaire</SimpleData>
		<SimpleData name="resultat_c">Commune Sedentaire</SimpleData>
		<SimpleData name="statut_se">CAPI</SimpleData>
		<SimpleData name="mode_vie_c">Non</SimpleData>
		<SimpleData name="statut_col">Oui</SimpleData>
		<SimpleData name="emprise">CAPI</SimpleData>
		<SimpleData name="affiche_in">Carto RGPH5 2019-2020</SimpleData>
		<SimpleData name="date_modif">1.29942e-05</SimpleData>
	</SchemaData></ExtendedData>
      <Polygon><outerBoundaryIs><LinearRing><coordinates>-11.4353307989999,14.458121803 -11.433467789,14.457517205 -11.433355354,14.4574807170001 -11.433275243,14.4574547190001 -11.433281844,14.4574337780001 -11.433297433,14.457384323 -11.433318759,14.4573166700001 -11.4333560859999,14.4571982530001 -11.4335583439999,14.456556607 -11.4335407479999,14.456549169 -11.4338329089999,14.4557818060001 -11.433493836,14.4556568840001 -11.4337900789999,14.454850247 -11.4338043549999,14.4548121760001 -11.4343397339999,14.455029896 -11.4346167969999,14.454243423 -11.435030227,14.452990115 -11.4354937599999,14.4531357970001 -11.4368262579999,14.453468921 -11.437323345,14.453743177 -11.437157409,14.4543055030001 -11.4371471009999,14.4543404350001 -11.437090774,14.454531316 -11.437058892,14.4546393590001 -11.4369874619999,14.45488142 -11.436424142,14.456790401 -11.43617653,14.457523757 -11.436176487,14.4575237400001 -11.43588912,14.4583029940001 -11.4353307989999,14.458121803</coordinates></LinearRing></outerBoundaryIs></Polygon>
  </Placemark>
</Folder>
</Document></kml>
